[{"OBJECT_NAME":"IRS-P6 (RESOURCESAT-1)","OBJECT_ID":"2003-046A","EPOCH":"2026-03-10T00:23:01.313952","MEAN_MOTION":14.36117534,"ECCENTRICITY":0.00629144,"INCLINATION":98.2042,"RA_OF_ASC_NODE":110.3286,"ARG_OF_PERICENTER":280.126,"MEAN_ANOMALY":140.7181,"EPHEMERIS_TYPE":0,"CLASSIFICATION_TYPE":"U","NORAD_CAT_ID":28051,"ELEMENT_SET_NO":999,"REV_AT_EPOCH":16629,"BSTAR":9.8466414e-5,"MEAN_MOTION_DOT":2.52e-6,"MEAN_MOTION_DDOT":0},{"OBJECT_NAME":"CZ-6A DEB","OBJECT_ID":"2024-140CQ","EPOCH":"2026-03-09T14:42:52.923456","MEAN_MOTION":14.17620302,"ECCENTRICITY":0.0058861,"INCLINATION":89.0068,"RA_OF_ASC_NODE":287.0176,"ARG_OF_PERICENTER":164.4048,"MEAN_ANOMALY":195.8972,"EPHEMERIS_TYPE":0,"CLASSIFICATION_TYPE":"U","NORAD_CAT_ID":60687,"ELEMENT_SET_NO":999,"REV_AT_EPOCH":8175,"BSTAR":0.00055403,"MEAN_MOTION_DOT":1.159e-5,"MEAN_MOTION_DDOT":0}]
